start=new Date('2023-01-06T00:00:00.000Z').valueOf();
sats=[{"APOAPSIS":"525.261","MEAN_MOTION":"15.13757460","COUNTRY_CODE":"US","OBJECT_TYPE":"PAYLOAD","EPHEMERIS_TYPE":"0","PERIAPSIS":"524.249","PERIOD":"95.128","ECCENTRICITY":"0.00007330","RCS_SIZE":"LARGE","CLASSIFICATION_TYPE":"U","GP_ID":"222286794","BSTAR":"0.00142330000000","ELEMENT_SET_NO":"999","REF_FRAME":"TEME","CENTER_NAME":"EARTH","TLE_LINE2":"2 45762  53.0557  15.4465 0000733  27.1506 332.9524 15.13757460141823","INCLINATION":"53.0557","FILE":"3732963","ARG_OF_PERICENTER":"27.1506","TIME_SYSTEM":"UTC","OBJECT_ID":"2020-038AJ","REV_AT_EPOCH":"14182","OBJECT_NAME":"STARLINK-1499","RA_OF_ASC_NODE":"15.4465","LAUNCH_DATE":"2020-06-13","SEMIMAJOR_AXIS":"6902.890","MEAN_ANOMALY":"332.9524","DECAY_DATE":null,"EPOCH":"2023-01-05T07:53:53.606688","MEAN_ELEMENT_THEORY":"SGP4","SITE":"AFETR","MEAN_MOTION_DDOT":"0.0000000000000","TLE_LINE1":"1 45762U 20038AJ  23005.32909267  .00025756  00000-0  14233-2 0  9995","NORAD_CAT_ID":"45762","MEAN_MOTION_DOT":"0.00025756"},{"PERIOD":"95.591","PERIAPSIS":"546.103","ECCENTRICITY":"0.00015470","COUNTRY_CODE":"US","MEAN_MOTION":"15.06412692","APOAPSIS":"548.246","EPHEMERIS_TYPE":"0","OBJECT_TYPE":"PAYLOAD","GP_ID":"222287040","CENTER_NAME":"EARTH","REF_FRAME":"TEME","BSTAR":"0.00013556000000","ELEMENT_SET_NO":"999","CLASSIFICATION_TYPE":"U","RCS_SIZE":"LARGE","REV_AT_EPOCH":"14180","OBJECT_ID":"2020-038AL","TIME_SYSTEM":"UTC","ARG_OF_PERICENTER":"66.1488","FILE":"3732963","INCLINATION":"53.0527","TLE_LINE2":"2 45764  53.0527  19.3573 0001547  66.1488 293.9663 15.06412692141806","TLE_LINE1":"1 45764U 20038AL  23005.73964841  .00001739  00000-0  13556-3 0  9994","MEAN_MOTION_DDOT":"0.0000000000000","SITE":"AFETR","MEAN_MOTION_DOT":"0.00001739","NORAD_CAT_ID":"45764","MEAN_ANOMALY":"293.9663","RA_OF_ASC_NODE":"19.3573","LAUNCH_DATE":"2020-06-13","SEMIMAJOR_AXIS":"6925.310","OBJECT_NAME":"STARLINK-1502","EPOCH":"2023-01-05T17:45:05.622624","MEAN_ELEMENT_THEORY":"SGP4","DECAY_DATE":null},{"INCLINATION":"53.0563","TLE_LINE2":"2 45766  53.0563  19.3910 0003113  29.6362 330.4803 15.06412681141787","TIME_SYSTEM":"UTC","ARG_OF_PERICENTER":"29.6362","FILE":"3732963","REV_AT_EPOCH":"14178","OBJECT_ID":"2020-038AN","RA_OF_ASC_NODE":"19.3910","LAUNCH_DATE":"2020-06-13","SEMIMAJOR_AXIS":"6925.310","OBJECT_NAME":"STARLINK-1509","MEAN_ANOMALY":"330.4803","MEAN_ELEMENT_THEORY":"SGP4","EPOCH":"2023-01-05T17:29:09.874464","DECAY_DATE":null,"SITE":"AFETR","TLE_LINE1":"1 45766U 20038AN  23005.72858651  .00000702  00000-0  66057-4 0  9990","MEAN_MOTION_DDOT":"0.0000000000000","NORAD_CAT_ID":"45766","MEAN_MOTION_DOT":"0.00000702","MEAN_MOTION":"15.06412681","APOAPSIS":"549.331","COUNTRY_CODE":"US","OBJECT_TYPE":"PAYLOAD","EPHEMERIS_TYPE":"0","PERIOD":"95.591","PERIAPSIS":"545.019","ECCENTRICITY":"0.00031130","RCS_SIZE":"LARGE","CLASSIFICATION_TYPE":"U","GP_ID":"222285295","BSTAR":"0.00006605700000","ELEMENT_SET_NO":"999","CENTER_NAME":"EARTH","REF_FRAME":"TEME"},{"PERIAPSIS":"545.382","PERIOD":"95.591","ECCENTRICITY":"0.00025700","APOAPSIS":"548.941","MEAN_MOTION":"15.06417002","COUNTRY_CODE":"US","EPHEMERIS_TYPE":"0","OBJECT_TYPE":"PAYLOAD","GP_ID":"222285545","ELEMENT_SET_NO":"999","BSTAR":"0.00032587000000","REF_FRAME":"TEME","CENTER_NAME":"EARTH","RCS_SIZE":"LARGE","CLASSIFICATION_TYPE":"U","ARG_OF_PERICENTER":"31.4467","FILE":"3732963","TIME_SYSTEM":"UTC","OBJECT_ID":"2020-038AP","REV_AT_EPOCH":"14178","TLE_LINE2":"2 45767  53.0549  19.4324 0002570  31.4467 328.6675 15.06417002141783","INCLINATION":"53.0549","SITE":"AFETR","MEAN_MOTION_DDOT":"0.0000000000000","TLE_LINE1":"1 45767U 20038AP  23005.72121749  .00004578  00000-0  32587-3 0  9997","NORAD_CAT_ID":"45767","MEAN_MOTION_DOT":"0.00004578","OBJECT_NAME":"STARLINK-1511","LAUNCH_DATE":"2020-06-13","RA_OF_ASC_NODE":"19.4324","SEMIMAJOR_AXIS":"6925.296","MEAN_ANOMALY":"328.6675","DECAY_DATE":null,"EPOCH":"2023-01-05T17:18:33.191136","MEAN_ELEMENT_THEORY":"SGP4"},{"DECAY_DATE":null,"MEAN_ELEMENT_THEORY":"SGP4","EPOCH":"2023-01-05T18:27:33.473088","OBJECT_NAME":"STARLINK-1521","SEMIMAJOR_AXIS":"6925.281","LAUNCH_DATE":"2020-06-13","RA_OF_ASC_NODE":"19.2049","MEAN_ANOMALY":"313.2436","NORAD_CAT_ID":"45768","MEAN_MOTION_DOT":"0.00006006","SITE":"AFETR","MEAN_MOTION_DDOT":"0.0000000000000","TLE_LINE1":"1 45768U 20038AQ  23005.76913742  .00006006  00000-0  42150-3 0  9999","TLE_LINE2":"2 45768  53.0572  19.2049 0002281  46.8744 313.2436 15.06422038141802","INCLINATION":"53.0572","FILE":"3732963","ARG_OF_PERICENTER":"46.8744","TIME_SYSTEM":"UTC","OBJECT_ID":"2020-038AQ","REV_AT_EPOCH":"14180","RCS_SIZE":"LARGE","CLASSIFICATION_TYPE":"U","BSTAR":"0.00042150000000","ELEMENT_SET_NO":"999","REF_FRAME":"TEME","CENTER_NAME":"EARTH","GP_ID":"222286295","EPHEMERIS_TYPE":"0","OBJECT_TYPE":"PAYLOAD","APOAPSIS":"548.726","MEAN_MOTION":"15.06422038","COUNTRY_CODE":"US","ECCENTRICITY":"0.00022810","PERIAPSIS":"545.566","PERIOD":"95.591"},{"OBJECT_NAME":"STARLINK-1459","RA_OF_ASC_NODE":"39.1113","LAUNCH_DATE":"2020-06-13","SEMIMAJOR_AXIS":"6925.309","MEAN_ANOMALY":"319.7924","DECAY_DATE":null,"EPOCH":"2023-01-05T19:02:03.014880","MEAN_ELEMENT_THEORY":"SGP4","SITE":"AFETR","MEAN_MOTION_DDOT":"0.0000000000000","TLE_LINE1":"1 45769U 20038AR  23005.79309045  .00001694  00000-0  13259-3 0  9994","NORAD_CAT_ID":"45769","MEAN_MOTION_DOT":"0.00001694","TLE_LINE2":"2 45769  53.0542  39.1113 0002377  40.3240 319.7924 15.06412756141527","INCLINATION":"53.0542","ARG_OF_PERICENTER":"40.3240","FILE":"3732963","TIME_SYSTEM":"UTC","OBJECT_ID":"2020-038AR","REV_AT_EPOCH":"14152","RCS_SIZE":"LARGE","CLASSIFICATION_TYPE":"U","GP_ID":"222286540","ELEMENT_SET_NO":"999","BSTAR":"0.00013259000000","REF_FRAME":"TEME","CENTER_NAME":"EARTH","APOAPSIS":"548.821","MEAN_MOTION":"15.06412756","COUNTRY_CODE":"US","EPHEMERIS_TYPE":"0","OBJECT_TYPE":"PAYLOAD","PERIAPSIS":"545.528","PERIOD":"95.591","ECCENTRICITY":"0.00023770"},{"MEAN_ANOMALY":"320.3499","LAUNCH_DATE":"2020-06-13","RA_OF_ASC_NODE":"0.8847","SEMIMAJOR_AXIS":"6925.254","OBJECT_NAME":"STARLINK-1462","MEAN_ELEMENT_THEORY":"SGP4","EPOCH":"2023-01-05T09:32:46.847616","DECAY_DATE":null,"TLE_LINE1":"1 45770U 20038AS  23005.39776444  .00010948  00000-0  75211-3 0  9991","MEAN_MOTION_DDOT":"0.0000000000000","SITE":"AFETR","MEAN_MOTION_DOT":"0.00010948","NORAD_CAT_ID":"45770","INCLINATION":"53.0540","TLE_LINE2":"2 45770  53.0540   0.8847 0002468  39.7670 320.3499 15.06430999142015","REV_AT_EPOCH":"14201","OBJECT_ID":"2020-038AS","TIME_SYSTEM":"UTC","ARG_OF_PERICENTER":"39.7670","FILE":"3732939","CLASSIFICATION_TYPE":"U","RCS_SIZE":"LARGE","GP_ID":"222259844","CENTER_NAME":"EARTH","REF_FRAME":"TEME","BSTAR":"0.00075211000000","ELEMENT_SET_NO":"999","COUNTRY_CODE":"US","MEAN_MOTION":"15.06430999","APOAPSIS":"548.828","EPHEMERIS_TYPE":"0","OBJECT_TYPE":"PAYLOAD","PERIOD":"95.590","PERIAPSIS":"545.409","ECCENTRICITY":"0.00024680"},{"MEAN_MOTION_DOT":"0.00000466","NORAD_CAT_ID":"45771","MEAN_MOTION_DDOT":"0.0000000000000","TLE_LINE1":"1 45771U 20038AT  23005.39131786  .00000466  00000-0  50206-4 0  9998","SITE":"AFETR","DECAY_DATE":null,"MEAN_ELEMENT_THEORY":"SGP4","EPOCH":"2023-01-05T09:23:29.863104","MEAN_ANOMALY":"313.8509","OBJECT_NAME":"STARLINK-1463","LAUNCH_DATE":"2020-06-13","SEMIMAJOR_AXIS":"6925.303","RA_OF_ASC_NODE":"0.9150","OBJECT_ID":"2020-038AT","REV_AT_EPOCH":"14201","FILE":"3732939","ARG_OF_PERICENTER":"46.2644","TIME_SYSTEM":"UTC","TLE_LINE2":"2 45771  53.0554   0.9150 0001987  46.2644 313.8509 15.06414963142010","INCLINATION":"53.0554","REF_FRAME":"TEME","CENTER_NAME":"EARTH","BSTAR":"0.00005020600000","ELEMENT_SET_NO":"999","GP_ID":"222260091","CLASSIFICATION_TYPE":"U","RCS_SIZE":"LARGE","ECCENTRICITY":"0.00019870","PERIAPSIS":"545.792","PERIOD":"95.591","EPHEMERIS_TYPE":"0","OBJECT_TYPE":"PAYLOAD","COUNTRY_CODE":"US","APOAPSIS":"548.544","MEAN_MOTION":"15.06414963"},{"MEAN_ANOMALY":"311.0867","LAUNCH_DATE":"2020-06-13","RA_OF_ASC_NODE":"358.8870","SEMIMAJOR_AXIS":"6925.281","OBJECT_NAME":"STARLINK-1470","EPOCH":"2023-01-05T20:16:21.714528","MEAN_ELEMENT_THEORY":"SGP4","DECAY_DATE":null,"TLE_LINE1":"1 45772U 20038AU  23005.84469577  .00004641  00000-0  33005-3 0  9997","MEAN_MOTION_DDOT":"0.0000000000000","SITE":"AFETR","MEAN_MOTION_DOT":"0.00004641","NORAD_CAT_ID":"45772","INCLINATION":"53.0534","TLE_LINE2":"2 45772  53.0534 358.8870 0002002  49.0295 311.0867 15.06422098142098","REV_AT_EPOCH":"14209","OBJECT_ID":"2020-038AU","TIME_SYSTEM":"UTC","FILE":"3732963","ARG_OF_PERICENTER":"49.0295","CLASSIFICATION_TYPE":"U","RCS_SIZE":"LARGE","GP_ID":"222286795","CENTER_NAME":"EARTH","REF_FRAME":"TEME","ELEMENT_SET_NO":"999","BSTAR":"0.00033005000000","COUNTRY_CODE":"US","MEAN_MOTION":"15.06422098","APOAPSIS":"548.532","EPHEMERIS_TYPE":"0","OBJECT_TYPE":"PAYLOAD","PERIOD":"95.591","PERIAPSIS":"545.759","ECCENTRICITY":"0.00020020"},{"COUNTRY_CODE":"US","APOAPSIS":"548.742","MEAN_MOTION":"15.06415906","EPHEMERIS_TYPE":"0","OBJECT_TYPE":"PAYLOAD","PERIAPSIS":"545.587","PERIOD":"95.591","ECCENTRICITY":"0.00022780","CLASSIFICATION_TYPE":"U","RCS_SIZE":"LARGE","GP_ID":"222287041","REF_FRAME":"TEME","CENTER_NAME":"EARTH","ELEMENT_SET_NO":"999","BSTAR":"0.00033133000000","TLE_LINE2":"2 45773  53.0546 359.5065 0002278  40.2933 319.8224 15.06415906142074","INCLINATION":"53.0546","OBJECT_ID":"2020-038AV","REV_AT_EPOCH":"14207","FILE":"3732963","ARG_OF_PERICENTER":"40.2933","TIME_SYSTEM":"UTC","MEAN_ANOMALY":"319.8224","OBJECT_NAME":"STARLINK-1482","LAUNCH_DATE":"2020-06-13","SEMIMAJOR_AXIS":"6925.300","RA_OF_ASC_NODE":"359.5065","DECAY_DATE":null,"EPOCH":"2023-01-05T16:54:40.027680","MEAN_ELEMENT_THEORY":"SGP4","MEAN_MOTION_DDOT":"0.0000000000000","TLE_LINE1":"1 45773U 20038AV  23005.70462995  .00004659  00000-0  33133-3 0  9991","SITE":"AFETR","MEAN_MOTION_DOT":"0.00004659","NORAD_CAT_ID":"45773"}];
